1 39766U 14029A 26162.25511414 .00001165 00000+0 16281-3 0 9990 
2 39766 97.9210 259.5037 0001649 90.9933 269.1467 14.79471200650703 
1 40010U 14033A 26162.30232035 .00000470 00000+0 60265-4 0 9994 
2 40010 97.5415 2.2255 0008407 349.6907 10.4136 14.85461887648084 
1 40011U 14033B 26162.31864906 .00000770 00000+0 88970-4 0 9990 
2 40011 97.5457 347.4247 0022941 328.4946 31.4896 14.88112465647930 
1 40013U 14033D 26162.28814887 .00001301 00000+0 12809-3 0 9999 
2 40013 97.5847 36.9842 0001982 55.3213 304.8194 14.93713095636849 
1 40015U 14033F 26162.18962674 .00000877 00000+0 10697-3 0 9998 
2 40015 97.6412 325.4718 0033237 17.0044 343.2277 14.85376209646734 
1 40053U 14034A 26162.29151223 .00000307 00000+0 71919-4 0 9996 
2 40053 98.0631 224.9349 0001188 88.2946 271.8391 14.60953173636273 
1 40072U 14037D 26162.27490276 .00001114 00000+0 12807-3 0 9999 
2 40072 98.3836 120.9030 0004404 306.9851 53.0960 14.88012472645084 
1 40115U 14048A 26162.23787821 .00000679 00000+0 85860-4 0 9995 
2 40115 97.8566 237.1528 0001447 34.8138 325.3171 14.85011921641022 
1 40118U 14049A 26162.29795102 .00000310 00000+0 46994-4 0 9993 
2 40118 98.0111 226.5107 0005904 250.0474 110.0102 14.80892514638362 
1 40143U 14053A 26162.26231078 .00008592 00000+0 33342-3 0 9992 
2 40143 97.1481 202.7529 0009920 110.8446 249.3857 15.26287805654057 
1 40275U 14063A 26162.25370556 -.00000045 00000+0 42398-5 0 9992 
2 40275 100.7716 313.4285 0006204 198.7359 161.3525 13.15530979559030 
1 40298U 14070A 26162.29793965 .00006185 00000+0 29569-3 0 9995 
2 40298 97.3451 238.5722 0005039 184.5250 175.5941 15.19344850643112 
1 40310U 14072A 26162.32067375 .00000211 00000+0 38142-4 0 9997 
2 40310 98.1476 299.6093 0012590 284.4442 75.5370 14.76214246622855 
1 40336U 14079A 26162.32164976 .00000090 00000+0 46124-4 0 9991 
2 40336 98.3536 219.3372 0001979 69.7018 290.4380 14.35507555603113 
1 40362U 14088A 26162.24823366 .00025152 00000+0 49667-3 0 9996 
2 40362 97.0643 162.5974 0006483 80.5055 279.6929 15.47116946636782 
1 40376U 15003A 26162.26789397 .00000353 00000+0 77402-4 0 9991 
2 40376 98.1276 169.4463 0001287 93.9406 266.1943 14.63361276606751 
1 40536U 15014A 26162.25282197 .00019914 00000+0 29196-3 0 9995 
2 40536 97.6882 153.1818 0056023 196.0215 163.9268 15.53718855620895 
1 40697U 15028A 26162.27062237 -.00000159 00000+0 -43857-4 0 9995 
2 40697 98.5681 237.2058 0001089 88.3999 271.7309 14.30813249572880 
1 40701U 15030A 26162.26193363 .00010401 00000+0 21694-3 0 9991 
2 40701 97.6912 355.2776 0008326 207.9589 152.1213 15.45727826610539 
1 40718U 15032D 26162.31471347 .00001531 00000+0 19181-3 0 9990 
2 40718 97.6509 340.6274 0013494 318.8506 41.1690 14.83568880588470 
1 40878U 15040A 26162.25097726 .00000456 00000+0 13126-2 0 9991 
2 40878 100.1150 148.8913 0007526 225.1350 134.9153 13.16070503516889 
1 40894U 15047A 26162.25946444 .00000803 00000+0 10469-3 0 9990 
2 40894 97.6277 198.2235 0027959 156.6198 203.6295 14.82872177579312 
1 41026U 15064A 26162.29550187 .00005875 00000+0 22184-3 0 9997 
2 41026 97.3061 300.6779 0010093 204.4113 155.6650 15.27344590589786 
1 41038U 15069A 26162.30808075 .00000600 00000+0 80336-4 0 9994 
2 41038 98.0035 190.9318 0002834 64.9882 295.1625 14.83081002569757 
1 41167U 15077B 26162.07320463 .00003829 00000+0 12612-3 0 9997 
2 41167 14.9802 311.4591 0008233 152.2159 207.8603 15.23095182580162 
1 41194U 15083A 26162.00248612 -.00000318 00000+0 00000+0 0 9997 
2 41194 0.3399 83.8237 0004211 111.0309 171.1114 1.00272411 38464 
1 41240U 16002A 26162.25506183 -.00000034 00000+0 11244-3 0 9999 
2 41240 66.0396 138.3067 0008572 273.0300 86.9738 12.87627953486489 
1 41335U 16011A 26162.25552435 .00000077 00000+0 49861-4 0 9998 
2 41335 98.6249 229.7241 0001373 103.4833 256.6500 14.26738289537211 
1 41556U 16033A 26162.27051852 .00004313 00000+0 19492-3 0 9999 
2 41556 97.3838 238.1578 0011446 313.4061 46.6222 15.21423213557080 
1 41599U 16040A 26162.33038600 .00001643 00000+0 81089-4 0 9992 
2 41599 97.4486 222.3889 0010150 149.3774 210.8055 15.19267301552822 
