OBJECT_NAME,OBJECT_ID,EPOCH,MEAN_MOTION,ECCENTRICITY,INCLINATION,RA_OF_ASC_NODE,ARG_OF_PERICENTER,MEAN_ANOMALY,EPHEMERIS_TYPE,CLASSIFICATION_TYPE,NORAD_CAT_ID,ELEMENT_SET_NO,REV_AT_EPOCH,BSTAR,MEAN_MOTION_DOT,MEAN_MOTION_DDOT
ALOS-2,2014-029A,2026-06-11T06:07:21.861696,14.79471200,.00016493,97.9210,259.5037,90.9933,269.1467,0,U,39766,999,65070,.16281183E-3,.1165E-4,0
KAZEOSAT 2,2014-033A,2026-06-11T07:15:20.478240,14.85461887,.00084078,97.5415,2.2255,349.6907,10.4136,0,U,40010,999,64808,.60265289E-4,.47E-5,0
HODOYOSHI-4,2014-033B,2026-06-11T07:38:51.278784,14.88112465,.00229413,97.5457,347.4247,328.4946,31.4896,0,U,40011,999,64793,.88970488E-4,.77E-5,0
DEIMOS-2,2014-033D,2026-06-11T06:54:56.062368,14.93713095,.00019828,97.5847,36.9842,55.3213,304.8194,0,U,40013,999,63684,.1280937E-3,.1301E-4,0
HODOYOSHI-3,2014-033F,2026-06-11T04:33:03.750336,14.85376209,.0033237,97.6412,325.4718,17.0044,343.2277,0,U,40015,999,64673,.10696731E-3,.877E-5,0
SPOT 7,2014-034A,2026-06-11T06:59:46.656672,14.60953173,.00011883,98.0631,224.9349,88.2946,271.8391,0,U,40053,999,63627,.71918936E-4,.307E-5,0
SKYSAT-B,2014-037D,2026-06-11T06:35:51.598464,14.88012472,.00044047,98.3836,120.9030,306.9851,53.0960,0,U,40072,999,64508,.12806618E-3,.1114E-4,0
WORLDVIEW-3 (WV-3),2014-048A,2026-06-11T05:42:32.677344,14.85011921,.00014477,97.8566,237.1528,34.8138,325.3171,0,U,40115,999,64102,.85860316E-4,.679E-5,0
GAOFEN-2,2014-049A,2026-06-11T07:09:02.968128,14.80892514,.00059043,98.0111,226.5107,250.0474,110.0102,0,U,40118,999,63836,.46993793E-4,.31E-5,0
YAOGAN-21,2014-053A,2026-06-11T06:17:43.651392,15.26287805,.00099202,97.1481,202.7529,110.8446,249.3857,0,U,40143,999,65405,.33342009E-3,.8592E-4,0
YAOGAN-22,2014-063A,2026-06-11T06:05:20.160384,13.15530979,.00062044,100.7716,313.4285,198.7359,161.3525,0,U,40275,999,55903,.4239844E-5,-.45E-6,0
ASNARO,2014-070A,2026-06-11T07:09:01.985760,15.19344850,.00050394,97.3451,238.5722,184.5250,175.5941,0,U,40298,999,64311,.29569437E-3,.6185E-4,0
YAOGAN-24,2014-072A,2026-06-11T07:41:46.212000,14.76214246,.00125905,98.1476,299.6093,284.4442,75.5370,0,U,40310,999,62285,.38142301E-4,.211E-5,0
CBERS 4,2014-079A,2026-06-11T07:43:10.539264,14.35507555,.00019794,98.3536,219.3372,69.7018,290.4380,0,U,40336,999,60311,.46124413E-4,.9E-6,0
YAOGAN-26,2014-088A,2026-06-11T05:57:27.388224,15.47116946,.00064834,97.0643,162.5974,80.5055,279.6929,0,U,40362,999,63678,.49667209E-3,.25152E-3,0
SMAP,2015-003A,2026-06-11T06:25:46.039008,14.63361276,.00012877,98.1276,169.4463,93.9406,266.1943,0,U,40376,999,60675,.77401616E-4,.353E-5,0
KOMPSAT-3A,2015-014A,2026-06-11T06:04:03.818208,15.53718855,.00560231,97.6882,153.1818,196.0215,163.9268,0,U,40536,999,62089,.2919578E-3,.19914E-3,0
SENTINEL-2A,2015-028A,2026-06-11T06:29:41.772768,14.30813249,.00010897,98.5681,237.2058,88.3999,271.7309,0,U,40697,999,57288,-.43856563E-4,-.159E-5,0
GAOFEN-8,2015-030A,2026-06-11T06:17:11.065632,15.45727826,.00083269,97.6912,355.2776,207.9589,152.1213,0,U,40701,999,61053,.21694227E-3,.10401E-3,0
CARBONITE 1 (CBNT-1),2015-032D,2026-06-11T07:33:11.243808,14.83568880,.00134944,97.6509,340.6274,318.8506,41.1690,0,U,40718,999,58847,.19180582E-3,.1531E-4,0
YAOGAN-27,2015-040A,2026-06-11T06:01:24.435264,13.16070503,.00075269,100.1150,148.8913,225.1350,134.9153,0,U,40878,999,51688,.13126051E-2,.456E-5,0
GAOFEN-9 01,2015-047A,2026-06-11T06:13:37.727616,14.82872177,.00279595,97.6277,198.2235,156.6198,203.6295,0,U,40894,999,57931,.1046944E-3,.803E-5,0
YAOGAN-28,2015-064A,2026-06-11T07:05:31.361568,15.27344590,.00100935,97.3061,300.6779,204.4113,155.6650,0,U,41026,999,58978,.22183631E-3,.5875E-4,0
YAOGAN-29,2015-069A,2026-06-11T07:23:38.176800,14.83081002,.0002834,98.0035,190.9318,64.9882,295.1625,0,U,41038,999,56975,.80335697E-4,.6E-5,0
KENT RIDGE 1,2015-077B,2026-06-11T01:45:24.880032,15.23095182,.00082332,14.9802,311.4591,152.2159,207.8603,0,U,41167,999,58016,.12611853E-3,.3829E-4,0
GAOFEN-4,2015-083A,2026-06-11T00:03:34.800768,1.00272411,.00042115,0.3399,83.8237,111.0309,171.1114,0,U,41194,999,3846,0,-.318E-5,0
JASON-3,2016-002A,2026-06-11T06:07:17.342112,12.87627953,.00085725,66.0396,138.3067,273.0300,86.9738,0,U,41240,999,48648,.11243832E-3,-.34E-6,0
SENTINEL-3A,2016-011A,2026-06-11T06:07:57.303840,14.26738289,.00013735,98.6249,229.7241,103.4833,256.6500,0,U,41335,999,53721,.49860507E-4,.77E-6,0
ZIYUAN 3-02 (ZY 3-02),2016-033A,2026-06-11T06:29:32.800128,15.21423213,.00114461,97.3838,238.1578,313.4061,46.6222,0,U,41556,999,55708,.19492384E-3,.4313E-4,0
CARTOSAT-2C,2016-040A,2026-06-11T07:55:45.350400,15.19267301,.00101509,97.4486,222.3889,149.3774,210.8055,0,U,41599,999,55282,.81088786E-4,.1643E-4,0
